{
  "type": "FeatureCollection",
  "features": [
    {
      "type": "Feature",
      "properties": {
        "norad_id": 39160,
        "name": "VNREDSAT 1",
        "group": "resource",
        "lat": -19.72544616194757,
        "lon": 41.66651446188875,
        "alt_km": 682.6511900480054,
        "timestamp": "2025-12-09T09:46:47.303987+00:00",
        "meta_object_name": "VNREDSAT 1",
        "meta_object_id": "2013-021B",
        "meta_epoch": "2025-12-08T22:23:43.499904",
        "meta_mean_motion": 14.64913946,
        "meta_eccentricity": 0.00013494,
        "meta_inclination": 97.9376,
        "meta_ra_of_asc_node": 38.3413,
        "meta_arg_of_pericenter": 79.6996,
        "meta_mean_anomaly": 280.4359,
        "meta_ephemeris_type": 0,
        "meta_classification_type": "U",
        "meta_norad_cat_id": 39160,
        "meta_element_set_no": 999,
        "meta_rev_at_epoch": 67243,
        "meta_bstar": 0.00020330369,
        "meta_mean_motion_dot": 1.042e-05,
        "meta_mean_motion_ddot": 0,
        "tle_line1": "1 39160U 13021B   25342.93314236  .00001042  00000+0  20330-3 0  9990",
        "tle_line2": "2 39160  97.9376  38.3413 0001349  79.6996 280.4359 14.64913946672437"
      },
      "geometry": {
        "type": "Point",
        "coordinates": [
          41.66651446188875,
          -19.72544616194757
        ]
      }
    },
    {
      "type": "Feature",
      "properties": {
        "norad_id": 39227,
        "name": "ARIRANG-5 (KOMPSAT-5)",
        "group": "resource",
        "lat": -54.761808392224104,
        "lon": 178.67622873517956,
        "alt_km": 561.495455975326,
        "timestamp": "2025-12-09T09:46:47.303998+00:00",
        "meta_object_name": "ARIRANG-5 (KOMPSAT-5)",
        "meta_object_id": "2013-042A",
        "meta_epoch": "2025-12-09T03:38:28.108608",
        "meta_mean_motion": 15.04483704,
        "meta_eccentricity": 0.0003953,
        "meta_inclination": 97.6148,
        "meta_ra_of_asc_node": 167.5075,
        "meta_arg_of_pericenter": 64.9508,
        "meta_mean_anomaly": 295.2128,
        "meta_ephemeris_type": 0,
        "meta_classification_type": "U",
        "meta_norad_cat_id": 39227,
        "meta_element_set_no": 999,
        "meta_rev_at_epoch": 67528,
        "meta_bstar": 0.00019857,
        "meta_mean_motion_dot": 2.718e-05,
        "meta_mean_motion_ddot": 0,
        "tle_line1": "1 39227U 13042A   25343.15171422  .00002718  00000+0  19857-3 0  9993",
        "tle_line2": "2 39227  97.6148 167.5075 0003953  64.9508 295.2128 15.04483704675286"
      },
      "geometry": {
        "type": "Point",
        "coordinates": [
          178.67622873517956,
          -54.761808392224104
        ]
      }
    },
    {
      "type": "Feature",
      "properties": {
        "norad_id": 39418,
        "name": "SKYSAT-A",
        "group": "resource",
        "lat": -52.19826614310351,
        "lon": -155.9422857061009,
        "alt_km": 524.72282899316,
        "timestamp": "2025-12-09T09:46:47.304010+00:00",
        "meta_object_name": "SKYSAT-A",
        "meta_object_id": "2013-066C",
        "meta_epoch": "2025-12-08T23:13:09.414912",
        "meta_mean_motion": 15.11558162,
        "meta_eccentricity": 0.00206861,
        "meta_inclination": 97.4108,
        "meta_ra_of_asc_node": 33.2904,
        "meta_arg_of_pericenter": 250.6647,
        "meta_mean_anomaly": 109.2347,
        "meta_ephemeris_type": 0,
        "meta_classification_type": "U",
        "meta_norad_cat_id": 39418,
        "meta_element_set_no": 999,
        "meta_rev_at_epoch": 65973,
        "meta_bstar": 0.00030781706,
        "meta_mean_motion_dot": 5.183e-05,
        "meta_mean_motion_ddot": 0,
        "tle_line1": "1 39418U 13066C   25342.96747008  .00005183  00000+0  30782-3 0  9997",
        "tle_line2": "2 39418  97.4108  33.2904 0020686 250.6647 109.2347 15.11558162659730"
      },
      "geometry": {
        "type": "Point",
        "coordinates": [
          -155.9422857061009,
          -52.19826614310351
        ]
      }
    },
    {
      "type": "Feature",
      "properties": {
        "norad_id": 39419,
        "name": "DUBAISAT-2",
        "group": "resource",
        "lat": 53.21164107980563,
        "lon": -36.153377743367656,
        "alt_km": 535.2429406365254,
        "timestamp": "2025-12-09T09:46:47.304021+00:00",
        "meta_object_name": "DUBAISAT-2",
        "meta_object_id": "2013-066D",
        "meta_epoch": "2025-12-08T22:23:48.118848",
        "meta_mean_motion": 15.08296266,
        "meta_eccentricity": 0.00110151,
        "meta_inclination": 97.4446,
        "meta_ra_of_asc_node": 333.4577,
        "meta_arg_of_pericenter": 334.4917,
        "meta_mean_anomaly": 25.5767,
        "meta_ephemeris_type": 0,
        "meta_classification_type": "U",
        "meta_norad_cat_id": 39419,
        "meta_element_set_no": 999,
        "meta_rev_at_epoch": 65769,
        "meta_bstar": 0.00035687164,
        "meta_mean_motion_dot": 5.481e-05,
        "meta_mean_motion_ddot": 0,
        "tle_line1": "1 39419U 13066D   25342.93319582  .00005481  00000+0  35687-3 0  9997",
        "tle_line2": "2 39419  97.4446 333.4577 0011015 334.4917  25.5767 15.08296266657693"
      },
      "geometry": {
        "type": "Point",
        "coordinates": [
          -36.153377743367656,
          53.21164107980563
        ]
      }
    },
    {
      "type": "Feature",
      "properties": {
        "norad_id": 39574,
        "name": "GPM-CORE",
        "group": "resource",
        "lat": 62.453754659417896,
        "lon": -19.75696391997517,
        "alt_km": 429.97990140871116,
        "timestamp": "2025-12-09T09:46:47.304032+00:00",
        "meta_object_name": "GPM-CORE",
        "meta_object_id": "2014-009C",
        "meta_epoch": "2025-12-09T03:07:40.767744",
        "meta_mean_motion": 15.45431887,
        "meta_eccentricity": 0.001051,
        "meta_inclination": 64.9737,
        "meta_ra_of_asc_node": 224.7725,
        "meta_arg_of_pericenter": 269.8477,
        "meta_mean_anomaly": 90.146,
        "meta_ephemeris_type": 0,
        "meta_classification_type": "U",
        "meta_norad_cat_id": 39574,
        "meta_element_set_no": 999,
        "meta_rev_at_epoch": 66845,
        "meta_bstar": 0.00036305,
        "meta_mean_motion_dot": 0.00017291,
        "meta_mean_motion_ddot": 0,
        "tle_line1": "1 39574U 14009C   25343.13033296  .00017291  00000+0  36305-3 0  9995",
        "tle_line2": "2 39574  64.9737 224.7725 0010510 269.8477  90.1460 15.45431887668450"
      },
      "geometry": {
        "type": "Point",
        "coordinates": [
          -19.75696391997517,
          62.453754659417896
        ]
      }
    },
    {
      "type": "Feature",
      "properties": {
        "norad_id": 39634,
        "name": "SENTINEL-1A",
        "group": "resource",
        "lat": -81.80704983149813,
        "lon": 81.20215041757757,
        "alt_km": 703.9852064336783,
        "timestamp": "2025-12-09T09:46:47.304042+00:00",
        "meta_object_name": "SENTINEL-1A",
        "meta_object_id": "2014-016A",
        "meta_epoch": "2025-12-09T03:36:38.259648",
        "meta_mean_motion": 14.59200679,
        "meta_eccentricity": 0.0001254,
        "meta_inclination": 98.1799,
        "meta_ra_of_asc_node": 348.4445,
        "meta_arg_of_pericenter": 83.957,
        "meta_mean_anomaly": 276.1773,
        "meta_ephemeris_type": 0,
        "meta_classification_type": "U",
        "meta_norad_cat_id": 39634,
        "meta_element_set_no": 999,
        "meta_rev_at_epoch": 62230,
        "meta_bstar": 9.137e-05,
        "meta_mean_motion_dot": 3.85e-06,
        "meta_mean_motion_ddot": 0,
        "tle_line1": "1 39634U 14016A   25343.15044282  .00000385  00000+0  91370-4 0  9999",
        "tle_line2": "2 39634  98.1799 348.4445 0001254  83.9570 276.1773 14.59200679622305"
      },
      "geometry": {
        "type": "Point",
        "coordinates": [
          81.20215041757757,
          -81.80704983149813
        ]
      }
    },
    {
      "type": "Feature",
      "properties": {
        "norad_id": 39731,
        "name": "KAZEOSAT 1",
        "group": "resource",
        "lat": 81.63141519667964,
        "lon": -30.656819257877313,
        "alt_km": 743.4805483396167,
        "timestamp": "2025-12-09T09:46:47.304053+00:00",
        "meta_object_name": "KAZEOSAT 1",
        "meta_object_id": "2014-024A",
        "meta_epoch": "2025-12-09T04:22:15.544704",
        "meta_mean_motion": 14.42059065,
        "meta_eccentricity": 0.0001069,
        "meta_inclination": 98.3436,
        "meta_ra_of_asc_node": 55.1692,
        "meta_arg_of_pericenter": 95.9816,
        "meta_mean_anomaly": 264.1496,
        "meta_ephemeris_type": 0,
        "meta_classification_type": "U",
        "meta_norad_cat_id": 39731,
        "meta_element_set_no": 999,
        "meta_rev_at_epoch": 61117,
        "meta_bstar": 8.435e-05,
        "meta_mean_motion_dot": 2.34e-06,
        "meta_mean_motion_ddot": 0,
        "tle_line1": "1 39731U 14024A   25343.18212436  .00000234  00000+0  84350-4 0  9990",
        "tle_line2": "2 39731  98.3436  55.1692 0001069  95.9816 264.1496 14.42059065611174"
      },
      "geometry": {
        "type": "Point",
        "coordinates": [
          -30.656819257877313,
          81.63141519667964
        ]
      }
    }
  ]
}